STARLINK-32380          
1 61069U 24164V   26068.34214656  .00000708  00000+0  36030-4 0  9992
2 61069  53.1609  92.7793 0001248  75.6535 284.4605 15.30194515 83421
TOMORROW-S4             
1 62386U 24247K   26068.53305366  .00012677  00000+0  46927-3 0  9990
2 62386  44.9818 117.9996 0004434 210.4078 149.6548 15.27717249 67702
